CSS (TIANHE)            
1 48274U 21035A   24070.74115124  .00018365  00000+0  20082-3 0  9991
2 48274  41.4682 324.7670 0008438 141.6171 218.5270 15.62837455163680
